KUIPER-00104            
1 65142U 25171L   25317.37015007  .00038397  00000+0  21294-2 0  9994
2 65142  51.8889 314.4990 0005251 107.3946 252.7606 15.13397297 15632
KUIPER-00105            
1 65143U 25171M   25317.58512804 -.00358638  00000+0 -43477-1 0  9996
2 65143  51.8978 319.0896 0011943  76.2765 283.9529 14.85269711 15598
KUIPER-00106            
1 65144U 25171N   25317.39903934  .00016524  00000+0  14727-2 0  9994
2 65144  51.8946 323.0477 0009833  72.0206 288.1834 14.96076772 15527
KUIPER-00107            
1 65145U 25171P   25317.66668981  .00015610  00000+0  51305-3 0  9994
2 65145  51.8779 310.0358 0006753  96.1218  93.1842 15.31702111  5776
KUIPER-00108            
1 65146U 25171Q   25317.66668981 -.01954120  00000+0 -16826+0 0  9991
2 65146  51.8920 314.5645 0009196  88.1146  27.8236 15.00272878  5698
KUIPER-00109            
1 65147U 25171R   25317.66668981 -.00924252  00000+0 -53006-1 0  9997
2 65147  51.8839 311.9176 0012442  97.1671 303.0969 15.14759132  5004
KUIPER-00110            
1 65148U 25171S   25317.66668981 -.00064874  00000+0 -78107-2 0  9993
2 65148  51.8971 320.8712 0011792  89.9542 356.8772 14.83697030  5067
KUIPER-00111            
1 65149U 25171T   25317.44230102  .00009502  00000+0  12707-2 0  9999
2 65149  51.8984 327.1224 0010099  95.2902 264.9213 14.80006976 15463
